[{"OBJECT_NAME":"STARLINK-2622","OBJECT_ID":"2021-038H","EPOCH":"2026-03-09T22:47:25.613664","MEAN_MOTION":15.3018784,"ECCENTRICITY":0.00014174,"INCLINATION":53.1617,"RA_OF_ASC_NODE":356.9441,"ARG_OF_PERICENTER":103.4919,"MEAN_ANOMALY":256.624,"EPHEMERIS_TYPE":0,"CLASSIFICATION_TYPE":"U","NORAD_CAT_ID":48360,"ELEMENT_SET_NO":999,"REV_AT_EPOCH":26711,"BSTAR":-2.1226596e-5,"MEAN_MOTION_DOT":-9.88e-6,"MEAN_MOTION_DDOT":0},{"OBJECT_NAME":"OBJECT D","OBJECT_ID":"2024-174D","EPOCH":"2026-03-10T00:15:10.483200","MEAN_MOTION":15.28039787,"ECCENTRICITY":0.00110644,"INCLINATION":97.4441,"RA_OF_ASC_NODE":80.4677,"ARG_OF_PERICENTER":212.9968,"MEAN_ANOMALY":147.0582,"EPHEMERIS_TYPE":0,"CLASSIFICATION_TYPE":"U","NORAD_CAT_ID":61241,"ELEMENT_SET_NO":999,"REV_AT_EPOCH":8076,"BSTAR":0.00036340099,"MEAN_MOTION_DOT":9.884e-5,"MEAN_MOTION_DDOT":0}]
